NORAD_CAT_ID,OBJECT_NAME,OBJECT_TYPE,EPOCH,MEAN_MOTION,ECCENTRICITY,INCLINATION,RA_OF_ASC_NODE,ARG_OF_PERICENTER,MEAN_ANOMALY,BSTAR,MEAN_MOTION_DOT,MEAN_MOTION_DDOT,TLE_LINE0,TLE_LINE1,TLE_LINE2,SEMIMAJOR_AXIS,PERIOD,APOGEE,PERIGEE,DECAYED
55930.0,STARLINK-5896,PAYLOAD,2023-08-05 03:20:53,14.99304525,0.0002566,70.0001,153.6767,253.531,106.5568,1.3227e-05,6.8e-07,0.0,0 STARLINK-5896,1 55930U 23037S   23217.13950533  .00000068  00000-0  13227-4 0  9994,2 55930  70.0001 153.6767 0002566 253.5310 106.5568 14.99304525 22383,6947.181,96.045,570.829,567.263,0.0
55930.0,STARLINK-5896,PAYLOAD,2023-08-06 04:58:01,14.99305719,0.0002733,69.9996,150.9798,269.2187,90.866,0.00015583,1.814e-05,0.0,0 STARLINK-5896,1 55930U 23037S   23218.20696726  .00001814  00000-0  15583-3 0  9990,2 55930  69.9996 150.9798 0002733 269.2187  90.8660 14.99305719 22541,6947.177,96.044,570.941,567.144,0.0
55930.0,STARLINK-5896,PAYLOAD,2023-08-06 19:22:42,14.99295703,0.0002514,69.9996,149.4636,268.6149,91.4722,-0.00012875,-1.669e-05,0.0,0 STARLINK-5896,1 55930U 23037S   23218.80743484 -.00001669  00000-0 -12875-3 0  9991,2 55930  69.9996 149.4636 0002514 268.6149  91.4722 14.99295703 22630,6947.208,96.045,570.82,567.327,0.0
55930.0,STARLINK-5896,PAYLOAD,2023-08-07 19:23:46,14.99303376,0.0003295,69.9988,146.936,266.3225,93.7557,-6.5605e-05,-8.97e-06,0.0,0 STARLINK-5896,1 55930U 23037S   23219.80818052 -.00000897  00000-0 -65605-4 0  9998,2 55930  69.9988 146.9360 0003295 266.3225  93.7557 14.99303376 22787,6947.184,96.045,571.339,566.76,0.0
55930.0,STARLINK-5896,PAYLOAD,2023-08-08 01:48:03,14.99310264,0.000266,69.9998,146.2624,266.0004,94.0851,2.2533e-05,1.82e-06,0.0,0 STARLINK-5896,1 55930U 23037S   23220.07504053  .00000182  00000-0  22533-4 0  9990,2 55930  69.9998 146.2624 0002660 266.0004  94.0851 14.99310264 22821,6947.163,96.044,570.876,567.18,0.0
55930.0,STARLINK-5896,PAYLOAD,2023-08-08 05:00:18,14.99233914,0.0002522,69.9994,145.9263,283.7541,76.3338,-0.00078522,-9.672e-05,0.0,0 STARLINK-5896,1 55930U 23037S   23220.20854491 -.00009672  00000-0 -78522-3 0  9992,2 55930  69.9994 145.9263 0002522 283.7541  76.3338 14.99233914 22842,6947.399,96.049,571.016,567.512,0.0
55930.0,STARLINK-5896,PAYLOAD,2023-08-08 13:01:07,14.98924765,0.0003513,69.9995,145.0838,273.3014,86.7744,-0.0039976,-0.00048204,0.0,0 STARLINK-5896,1 55930U 23037S   23220.54244455 -.00048204  00000-0 -39976-2 0  9995,2 55930  69.9995 145.0838 0003513 273.3014  86.7744 14.98924765 22894,6948.354,96.069,572.66,567.778,0.0
55930.0,STARLINK-5896,PAYLOAD,2023-08-09 06:38:28,14.98710719,0.0003345,69.9996,143.2328,265.0958,94.9819,-0.0050919,-0.00060923,0.0,0 STARLINK-5896,1 55930U 23037S   23221.27672364 -.00060923  00000-0 -50919-2 0  9992,2 55930  69.9996 143.2328 0003345 265.0958  94.9819 14.98710719 23007,6949.016,96.083,573.205,568.556,0.0
55930.0,STARLINK-5896,PAYLOAD,2023-08-10 16:17:03,14.98426263,0.0003488,70.0009,139.6968,258.9403,101.1364,-0.0019799,-0.00023697,0.0,0 STARLINK-5896,1 55930U 23037S   23222.67850786 -.00023697  00000-0 -19799-2 0  9991,2 55930  70.0009 139.6968 0003488 258.9403 101.1364 14.98426263 23215,6949.895,96.101,574.184,569.336,0.0
55930.0,STARLINK-5896,PAYLOAD,2023-08-11 06:00:00,14.98318087,0.0002931,70.0005,138.2564,275.969,285.9089,0.00066327,7.827e-05,0.0,0 STARLINK-5896,1 55930U 23037S   23223.25001157  .00007827  00000-0  66327-3 0  9991,2 55930  70.0005 138.2564 0002931 275.9690 285.9089 14.98318087 23306,6950.23,96.108,574.132,570.058,0.0
55930.0,STARLINK-5896,PAYLOAD,2023-08-12 01:55:53,14.9830694,0.0002745,69.9999,136.1635,251.6627,108.4233,0.00033085,3.854e-05,0.0,0 STARLINK-5896,1 55930U 23037S   23224.08047900  .00003854  00000-0  33085-3 0  9990,2 55930  69.9999 136.1635 0002745 251.6627 108.4233 14.98306940 23423,6950.264,96.108,574.037,570.221,0.0
55930.0,STARLINK-5896,PAYLOAD,2023-08-12 17:57:13,14.98323171,0.0002989,69.9996,134.4792,268.5835,91.4981,8.5913e-05,9.32e-06,0.0,0 STARLINK-5896,1 55930U 23037S   23224.74807519  .00000932  00000-0  85913-4 0  9995,2 55930  69.9996 134.4792 0002989 268.5835  91.4981 14.98323171 23520,6950.214,96.107,574.156,570.002,0.0
55930.0,STARLINK-5896,PAYLOAD,2023-08-13 00:21:45,14.98335319,0.0002924,69.9999,133.8064,253.2855,106.7983,-4.0366e-05,-5.75e-06,0.0,0 STARLINK-5896,1 55930U 23037S   23225.01510890 -.00000575  00000-0 -40366-4 0  9997,2 55930  69.9999 133.8064 0002924 253.2855 106.7983 14.98335319 23563,6950.176,96.107,574.074,570.009,0.0
55930.0,STARLINK-5896,PAYLOAD,2023-08-13 17:59:14,14.98325844,0.0002605,69.9999,131.9552,267.7097,92.3764,2.1666e-05,1.66e-06,0.0,0 STARLINK-5896,1 55930U 23037S   23225.74947565  .00000166  00000-0  21666-4 0  9996,2 55930  69.9999 131.9552 0002605 267.7097  92.3764 14.98325844 23679,6950.206,96.107,573.881,570.26,0.0
55930.0,STARLINK-5896,PAYLOAD,2023-08-15 02:01:55,14.98334534,0.000281,69.9997,128.5888,268.9891,91.0946,2.0921e-05,1.57e-06,0.0,0 STARLINK-5896,1 55930U 23037S   23227.08467047  .00000157  00000-0  20921-4 0  9990,2 55930  69.9997 128.5888 0002810 268.9891  91.0946 14.98334534 23870,6950.179,96.107,573.997,570.091,0.0
55930.0,STARLINK-5896,PAYLOAD,2023-08-15 08:27:09,14.97846211,0.0001589,69.9997,127.9171,239.2114,120.8888,-0.0052179,-0.0006104,0.0,0 STARLINK-5896,1 55930U 23037S   23227.35219709 -.00061040  00000-0 -52179-2 0  9998,2 55930  69.9997 127.9171 0001589 239.2114 120.8888 14.97846211 23919,6951.689,96.138,574.659,572.45,0.0
55930.0,STARLINK-5896,PAYLOAD,2023-08-16 02:03:56,14.98335335,0.0003016,69.9988,126.0635,270.0144,90.0669,9.6402e-05,1.058e-05,0.0,0 STARLINK-5896,1 55930U 23037S   23228.08606571  .00001058  00000-0  96402-4 0  9996,2 55930  69.9988 126.0635 0003016 270.0144  90.0669 14.98335335 24026,6950.176,96.107,574.138,569.945,0.0
55930.0,STARLINK-5896,PAYLOAD,2023-08-17 02:05:57,14.98325746,0.0003051,69.9986,123.5385,271.2878,88.7932,-6.1649e-05,-8.28e-06,0.0,0 STARLINK-5896,1 55930U 23037S   23229.08747418 -.00000828  00000-0 -61649-4 0  9994,2 55930  69.9986 123.5385 0003051 271.2878  88.7932 14.98325746 24172,6950.206,96.107,574.192,569.951,0.0
55930.0,STARLINK-5896,PAYLOAD,2023-08-18 02:07:58,14.9833266,0.000298,69.9985,121.0136,269.1467,90.9351,7.4911e-06,-4e-08,0.0,0 STARLINK-5896,1 55930U 23037S   23230.08886784 -.00000004  00000-0  74911-5 0  9998,2 55930  69.9985 121.0136 0002980 269.1467  90.9351 14.98332660 24328,6950.185,96.107,574.121,569.979,0.0
55930.0,STARLINK-5896,PAYLOAD,2023-08-19 00:33:50,14.98336126,0.0002995,69.9997,118.6587,258.7429,101.3394,0.00045357,5.324e-05,0.0,0 STARLINK-5896,1 55930U 23037S   23231.02349636  .00005324  00000-0  45357-3 0  9992,2 55930  69.9997 118.6587 0002995 258.7429 101.3394 14.98336126 24461,6950.174,96.107,574.121,569.957,0.0
55930.0,STARLINK-5896,PAYLOAD,2023-08-19 02:09:56,14.98369631,0.0003234,69.9996,118.489,268.7463,91.3326,0.00047052,5.531e-05,0.0,0 STARLINK-5896,1 55930U 23037S   23231.09023530  .00005531  00000-0  47052-3 0  9995,2 55930  69.9996 118.4890 0003234 268.7463  91.3326 14.98369631 24472,6950.07,96.104,574.183,569.688,0.0
55930.0,STARLINK-5896,PAYLOAD,2023-08-19 16:35:12,14.9831941,0.0003344,69.9995,116.975,272.7587,87.3189,0.00014754,1.667e-05,0.0,0 STARLINK-5896,1 55930U 23037S   23231.69111292  .00001667  00000-0  14754-3 0  9993,2 55930  69.9995 116.9750 0003344 272.7587  87.3189 14.98319410 24565,6950.226,96.108,574.415,569.766,0.0
55930.0,STARLINK-5896,PAYLOAD,2023-08-20 02:12:00,14.98330233,0.0002336,69.9996,115.964,289.3186,70.772,7.2152e-06,-7e-08,0.0,0 STARLINK-5896,1 55930U 23037S   23232.09167547 -.00000007  00000-0  72152-5 0  9998,2 55930  69.9996 115.9640 0002336 289.3186  70.7720 14.98330233 24622,6950.192,96.107,573.681,570.434,0.0
55930.0,STARLINK-5896,PAYLOAD,2023-08-21 02:14:00,14.98371277,0.0003092,69.9992,113.4392,265.5806,94.5,-0.00052682,-6.38e-05,0.0,0 STARLINK-5896,1 55930U 23037S   23233.09306089 -.00006380  00000-0 -52682-3 0  9990,2 55930  69.9992 113.4392 0003092 265.5806  94.5000 14.98371277 24774,6950.065,96.104,574.079,569.781,0.0
55930.0,STARLINK-5896,PAYLOAD,2023-08-21 03:50:08,14.98340594,0.0002964,69.9993,113.2704,268.8905,91.1915,7.6221e-06,-2e-08,0.0,0 STARLINK-5896,1 55930U 23037S   23233.15982363 -.00000002  00000-0  76221-5 0  9993,2 55930  69.9993 113.2704 0002964 268.8905  91.1915 14.98340594 24780,6950.16,96.106,574.085,569.965,0.0
55930.0,STARLINK-5896,PAYLOAD,2023-08-21 19:51:29,14.98328228,0.0002829,69.9995,111.5885,264.1928,95.8909,1.3915e-05,7.3e-07,0.0,0 STARLINK-5896,1 55930U 23037S   23233.82743051  .00000073  00000-0  13915-4 0  9993,2 55930  69.9995 111.5885 0002829 264.1928  95.8909 14.98328228 24882,6950.198,96.107,574.03,570.097,0.0
55930.0,STARLINK-5896,PAYLOAD,2023-08-22 02:16:01,14.98333643,0.0002798,69.9996,110.9157,262.8651,97.219,7.1661e-05,7.62e-06,0.0,0 STARLINK-5896,1 55930U 23037S   23234.09446522  .00000762  00000-0  71661-4 0  9993,2 55930  69.9996 110.9157 0002798 262.8651  97.2190 14.98333643 24921,6950.182,96.107,573.991,570.102,0.0
55930.0,STARLINK-5896,PAYLOAD,2023-08-22 15:05:04,14.9835228,0.000288,69.9993,109.5685,264.7857,95.2974,0.00015984,1.816e-05,0.0,0 STARLINK-5896,1 55930U 23037S   23234.62852650  .00001816  00000-0  15984-3 0  9991,2 55930  69.9993 109.5685 0002880 264.7857  95.2974 14.98352280 25005,6950.124,96.106,573.991,569.987,0.0
55930.0,STARLINK-5896,PAYLOAD,2023-08-24 19:57:32,14.9832536,0.0003268,69.9981,104.0121,266.2228,93.8557,-0.00030722,-3.756e-05,0.0,0 STARLINK-5896,1 55930U 23037S   23236.83162747 -.00003756  00000-0 -30722-3 0  9991,2 55930  69.9981 104.0121 0003268 266.2228  93.8557 14.98325360 24994,6950.207,96.107,574.344,569.801,0.0
55930.0,STARLINK-5896,PAYLOAD,2023-08-25 18:23:25,14.98317234,0.0002935,69.9992,101.6562,258.8573,101.2256,0.00011308,1.256e-05,0.0,0 STARLINK-5896,1 55930U 23037S   23237.76626452  .00001256  00000-0  11308-3 0  9992,2 55930  69.9992 101.6562 0002935 258.8573 101.2256 14.98317234 25473,6950.232,96.108,574.137,570.057,0.0
